LEMUR-2-GREENBERG       
1 42837U 17042N   26068.46200528  .00019778  00000+0  72539-3 0  9997
2 42837  97.3781 249.8007 0009157   4.0119 356.1192 15.27971352473146
STARLINK-32426          
1 61681U 24193W   26068.50230905 -.00002193  00000+0 -61998-4 0  9990
2 61681  53.1606  92.1809 0001259  78.0470 282.0672 15.30175538 76498
