[{"OBJECT_NAME":"LEMUR-2-GREENBERG","OBJECT_ID":"2017-042N","EPOCH":"2026-03-09T11:05:17.256192","MEAN_MOTION":15.27971352,"ECCENTRICITY":0.00091572,"INCLINATION":97.3781,"RA_OF_ASC_NODE":249.8007,"ARG_OF_PERICENTER":4.0119,"MEAN_ANOMALY":356.1192,"EPHEMERIS_TYPE":0,"CLASSIFICATION_TYPE":"U","NORAD_CAT_ID":42837,"ELEMENT_SET_NO":999,"REV_AT_EPOCH":47314,"BSTAR":0.00072539172,"MEAN_MOTION_DOT":0.00019778,"MEAN_MOTION_DDOT":0},{"OBJECT_NAME":"STARLINK-32426","OBJECT_ID":"2024-193W","EPOCH":"2026-03-09T12:03:19.501920","MEAN_MOTION":15.30175538,"ECCENTRICITY":0.00012591,"INCLINATION":53.1606,"RA_OF_ASC_NODE":92.1809,"ARG_OF_PERICENTER":78.047,"MEAN_ANOMALY":282.0672,"EPHEMERIS_TYPE":0,"CLASSIFICATION_TYPE":"U","NORAD_CAT_ID":61681,"ELEMENT_SET_NO":999,"REV_AT_EPOCH":7649,"BSTAR":-6.1997625e-5,"MEAN_MOTION_DOT":-2.193e-5,"MEAN_MOTION_DDOT":0}]
